PISAT                   
1 41784U 16059B   24273.09072322  .00003476  00000+0  63070-3 0  9996
2 41784  97.8314 290.3752 0031433  45.5719 314.8050 14.66516677427880
HXMT (HUIYAN)           
1 42758U 17034A   24273.09748967  .00017716  00000+0  88658-3 0  9998
2 42758  43.0141  58.8031 0010484  83.1134 277.0906 15.17083546402628
FLYING LAPTOP           
1 42831U 17042G   24272.95456109  .00005702  00000+0  51127-3 0  9990
2 42831  97.3898  87.9781 0013658  88.3429 271.9357 14.96065531392649
ZHANGHENG 1 (CSES)      
1 43194U 18015C   24273.16589072  .00028050  00000+0  12727-2 0  9997
2 43194  97.6218  57.9849 0003913 175.0316 185.0959 15.20768936369492
SALSAT                  
1 46495U 20068K   24272.89203116  .00016181  00000+0  85246-3 0  9995
2 46495  97.8277 235.0162 0011626 329.0421  31.0124 15.15629187220006
IXPE                    
1 49954U 21121A   24272.91667824  .00014270  00000+0  10427-2 0  9997
2 49954   0.2317 342.6999 0008744  21.3922 104.4833 15.00188200  5508
<!DOCTYPE html PUBLIC "-//W3C//DTD XHTML 1.0 Strict//EN" "http://www.w3.org/TR/xhtml1/DTD/xhtml1-strict.dtd">
<html xmlns="http://www.w3.org/1999/xhtml">
<head>
<meta http-equiv="Content-Type" content="text/html; charset=iso-8859-1"/>
<title>404 - File Not Found.</title>
<style type="text/css">
<!--
body{margin:0;font-size:.7em;font-family:Verdana, Arial, Helvetica, sans-serif;background:#EEEEEE;}
fieldset{padding:0 15px 10px 15px;}
h1{font-size:2.4em;margin:0;color:#FFF;}
h2{font-size:1.7em;margin:0;color:#CC0000;}
h3{font-size:1.2em;margin:10px 0 0 0;color:#000000;}
#header{width:96%;margin:0 0 0 0;padding:6px 2% 6px 2%;font-family:"trebuchet MS", Verdana, sans-serif;color:#FFF;
background-color:#555555;}
#content{margin:0 0 0 2%;position:relative;}
.content-container{background:#FFF;width:96%;margin-top:8px;padding:10px;position:relative;}
-->
</style>
</head>
<body>
<div id="header"><h1>Server Error</h1></div>
<div id="content">
 <div class="content-container"><fieldset>
  <h2>404 - File Not Found.</h2>
  <h3>File not found for celestrak.org/NORAD/elements/ses.txt.</h3>
  <h3>Please contact <a href="mailto:ts.kelso@celestrak.org">ts.kelso@celestrak.org</a> if you have other questions.</h3>
 </fieldset></div>
</div>
</body>
</html>
ISS (ZARYA)             
1 25544U 98067A   24273.40365741 -.00074148  00000+0 -13101-2 0  9991
2 25544  51.6395 159.1861 0006820  41.1038 292.2714 15.49830582474709
CSS (TIANHE)            
1 48274U 21035A   24272.99107957  .00070786  00000+0  75238-3 0  9995
2 48274  41.4672 170.1455 0003653  51.0721 309.0444 15.63070719195331
ISS (NAUKA)             
1 49044U 21066A   24272.89261992  .00027173  00000+0  48449-3 0  9990
2 49044  51.6373 161.7210 0007161  41.4790 318.6741 15.49858843180381
FREGAT DEB              
1 49271U 11037PF  24270.67286198  .00014155  00000+0  36111-1 0  9995
2 49271  51.6378  55.3531 0906381 344.6057  12.8811 12.20600309147582
CSS (WENTIAN)           
1 53239U 22085A   24272.73550479  .00059705  00000+0  63696-3 0  9994
2 53239  41.4671 171.7070 0003844  47.1453 312.9709 15.63033866124394
CSS (MENGTIAN)          
1 54216U 22143A   24272.73550479  .00059705  00000+0  63696-3 0  9995
2 54216  41.4671 171.7070 0003844  47.1453 312.9709 15.63033866108819
TIANZHOU-7              
1 58811U 24013A   24272.73550479  .00059705  00000+0  63696-3 0  9998
2 58811  41.4671 171.7070 0003844  47.1453 312.9709 15.63033866194954
CREW DRAGON 8           
1 59097U 24042A   24272.89261992  .00027173  00000+0  48449-3 0  9996
2 59097  51.6373 161.7210 0007161  41.4790 318.6741 15.49858843472698
1998-067WL              
1 59561U 98067WL  24273.06419565  .00126080  00000+0  97915-3 0  9990
2 59561  51.6280 150.0781 0001921 193.4819 166.6128 15.70882809 25533
SHENZHOU-18 (SZ-18)     
1 59591U 24078A   24272.73550479  .00059705  00000+0  63696-3 0  9995
2 59591  41.4671 171.7070 0003844  47.1453 312.9709 15.63033866 23995
SZ-17 MODULE            
1 59624U 23164C   24272.97465545  .00116095  00000+0  62411-3 0  9992
2 59624  41.4730 161.9018 0013024 265.3586  94.5772 15.78964156 23863
PROGRESS-MS 27          
1 59913U 24103A   24272.89261992  .00027173  00000+0  48449-3 0  9991
2 59913  51.6373 161.7210 0007161  41.4790 318.6741 15.49858843 18758
CYGNUS NG-21            
1 60378U 24139A   24272.89261992  .00027173  00000+0  48449-3 0  9997
2 60378  51.6373 161.7210 0007161  41.4790 318.6741 15.49858843  8293
PROGRESS-MS 28          
1 60450U 24145A   24272.89261992  .00027173  00000+0  48449-3 0  9995
2 60450  51.6373 161.7210 0007161  41.4790 318.6741 15.49858843  6595
BINAR-4                 
1 60952U 98067WS  24273.10683078  .00256136  00000+0  29397-2 0  9997
2 60952  51.6334 159.4036 0004560  73.9474 286.2021 15.60662936  4787
COSMOGIRLSAT            
1 60953U 98067WT  24272.94049443  .00148653  00000+0  19768-2 0  9996
2 60953  51.6358 160.5438 0008495  57.0247 303.1560 15.57132831  4751
SAKURA                  
1 60954U 98067WU  24272.93221904  .00172650  00000+0  22139-2 0  9990
2 60954  51.6360 160.4899 0007878  59.5687 300.6083 15.58018305  4756
1998-067WV              
1 60955U 98067WV  24272.92926343  .00427697  00000+0  38658-2 0  9996
2 60955  51.6334 159.7186 0002127 116.8519 243.2694 15.66197846  4769
BINAR-2                 
1 60956U 98067WW  24273.04753645  .00209317  00000+0  25249-2 0  9993
2 60956  51.6302 159.7523 0005757  69.8049 290.3563 15.59517617  4769
BINAR-3                 
1 60957U 98067WX  24272.90585448  .00279787  00000+0  31131-2 0  9997
2 60957  51.6329 160.3102 0004328  74.4929 285.6542 15.61389620  6739
1998-067WY              
1 60958U 98067WY  24273.07286426  .00134647  00000+0  18225-2 0  9995
2 60958  51.6368 159.9297 0008759  56.5281 303.6547 15.56711277  4764
SOYUZ-MS 26             
1 61043U 24162A   24272.89261992  .00027173  00000+0  48449-3 0  9993
2 61043  51.6373 161.7210 0007161  41.4790 318.6741 15.49858843472692
CREW DRAGON 9           
1 61447U 24178A   24272.72881994 -.00003820  12078-4  00000+0 0  9994
2 61447  51.6250 162.3421 0013006  31.0863  31.9268 16.28125952    03
TDRS 3                  
1 19548U 88091B   24272.09390701 -.00000307  00000+0  00000+0 0  9998
2 19548  13.0842 345.2002 0036015 334.3084  32.8207  1.00269855119103
HST                     
1 20580U 90037B   24272.95548354  .00013397  00000+0  59995-3 0  9996
2 20580  28.4699   8.9658 0003303  97.0171 263.0797 15.19732270692823
TDRS 5                  
1 21639U 91054B   24273.09424559 -.00000306  00000+0  00000+0 0  9994
2 21639  14.1498 358.3430 0006824 236.2617 105.1132  1.00264547121436
TDRS 6                  
1 22314U 93003B   24272.67584565 -.00000301  00000+0  00000+0 0  9993
2 22314  14.1671   1.6474 0011689 177.3787  26.4110  1.00272889116123
TDRS 7                  
1 23613U 95035B   24272.72202333 -.00000209  00000+0  00000+0 0  9996
2 23613  13.6401 352.4971 0024113  79.1863 280.9425  1.00278214106965
ISS (ZARYA)             
1 25544U 98067A   24273.40365741 -.00074148  00000+0 -13101-2 0  9991
2 25544  51.6395 159.1861 0006820  41.1038 292.2714 15.49830582474709
LANDSAT 7               
1 25682U 99020A   24272.93367333  .00001404  00000+0  29532-3 0  9999
2 25682  97.8831 294.8163 0001674  81.4763  34.7515 14.60970839354285
TERRA                   
1 25994U 99068A   24273.19711201  .00001516  00000+0  32501-3 0  9997
2 25994  98.0375 333.5896 0003254  59.1905   4.8577 14.60023860318343
TDRS 8                  
1 26388U 00034A   24272.58085062  .00000090  00000+0  00000+0 0  9992
2 26388  11.6921  36.3707 0006003 196.8216 176.4222  1.00279722 88906
TIMED                   
1 26998U 01055B   24272.86229959  .00004815  00000+0  47654-3 0  9998
2 26998  74.0706  53.6347 0000524   8.0831 352.0360 14.92146316237287
AQUA                    
1 27424U 02022A   24273.17005844  .00003190  00000+0  67527-3 0  9994
2 27424  98.3397 223.0146 0002026  98.6740  15.1283 14.59958044191888
TDRS 10                 
1 27566U 02055A   24273.22420655  .00000081  00000+0  00000+0 0  9999
2 27566   9.7540  44.6088 0001934 328.3427 265.0877  1.00271110 79946
SORCE                   
1 27651U 03004A   24272.24756674  .00007852  00000+0  68609-3 0  9999
2 27651  39.9917 222.5674 0022776 246.4352 113.4047 14.96590719177689
AURA                    
1 28376U 04026A   24272.86902959  .00003405  00000+0  73214-3 0  9994
2 28376  98.2584 217.0547 0002505  91.6088 268.5398 14.59177963 74794
SWIFT                   
1 28485U 04047A   24272.94212746  .00028252  00000+0  11245-2 0  9997
2 28485  20.5555 156.2967 0006889 184.0631 175.9751 15.23397089 89998
THEMIS A                
1 30580U 07004A   24271.93169472 -.00000442  00000+0  00000+0 0  9993
2 30580   8.9117 257.2463 8385181 339.0929   0.5729  0.87835679 35769
THEMIS D                
1 30797U 07004D   24272.91145116 -.00000330  00000+0  00000+0 0  9997
2 30797   4.4466 256.8616 8376490 343.6612 299.0087  0.87836871 35560
THEMIS E                
1 30798U 07004E   24272.91301501 -.00000352  00000+0  00000+0 0  9994
2 30798   6.4809 277.2492 8365104 324.3822 313.6535  0.87834193 60409
FGRST (GLAST)           
1 33053U 08029A   24273.14267639  .00008199  00000+0  37556-3 0  9994
2 33053  25.5820 214.7707 0009972 166.1332 193.9480 15.18071043900604
TDRS 11                 
1 39070U 13004A   24272.78399767  .00000068  00000+0  00000+0 0  9992
2 39070   2.8047  15.2042 0004092  74.2775  26.5881  1.00265826 40412
TDRS 12                 
1 39504U 14004A   24272.82896661 -.00000281  00000+0  00000+0 0  9993
2 39504   3.5705   5.8536 0006437 216.3664  43.1763  1.00264601 37990
GPM-CORE                
1 39574U 14009C   24273.16771019  .00019294  00000+0  41052-3 0  9991
2 39574  64.9815 244.8954 0011735 271.5593  88.4204 15.44971733601139
